ONEWEB-0211             
1 48767U 21045A   26204.60446353  .00000003  00000+0 -24635-4 0  9996
2 48767  87.8982 251.8180 0002754  99.0113 261.1329 13.16197718249230
ONEWEB-0223             
1 48768U 21045B   26204.54867425 -.00000129  00000+0 -37712-3 0  9996
2 48768  87.8982 251.9471 0002403 102.4621 257.6778 13.15548545249188
ONEWEB-0230             
1 48769U 21045C   26204.13986802  .00000056  00000+0  11356-3 0  9996
2 48769  87.8979 252.0390 0001870  95.4574 264.6769 13.15548770249393
ONEWEB-0237             
1 48770U 21045D   26204.58510821  .00001001  00000+0  26236-2 0  9994
2 48770  87.8963 251.9511 0002450  87.3115 272.8296 13.15555993249174
ONEWEB-0235             
1 48771U 21045E   26204.17945709 -.00000115  00000+0 -34077-3 0  9997
2 48771  87.8983 252.0221 0002367 105.2113 254.9279 13.15547792249116
ONEWEB-0242             
1 48772U 21045F   26204.55342655 -.00000049  00000+0 -16419-3 0  9997
2 48772  87.8986 251.9451 0002024 102.4575 257.6782 13.15548827249203
ONEWEB-0241             
1 48773U 21045G   26204.38866656 -.00000147  00000+0 -42548-3 0  9992
2 48773  87.8975 251.9919 0002387 101.0111 259.1288 13.15551087249091
ONEWEB-0243             
1 48774U 21045H   26204.11607785  .00006091  00000+0  16141-1 0  9990
2 48774  87.8980 252.0598 0002285 114.7431 245.3937 13.15517808249086
ONEWEB-0222             
1 48775U 21045J   26204.40369092  .00000022  00000+0  23755-4 0  9999
2 48775  87.8981 251.9720 0002271  99.0828 261.0559 13.15547800249162
ONEWEB-0244             
1 48776U 21045K   26204.42983881  .00000092  00000+0  21052-3 0  9994
2 48776  87.8988 251.9635 0002086 100.4152 259.7214 13.15548180249733
ONEWEB-0247             
1 48777U 21045L   26204.57876909  .00000152  00000+0  37070-3 0  9997
2 48777  87.8970 251.9609 0002354 117.0563 243.0808 13.15546918249196
ONEWEB-0245             
1 48778U 21045M   26204.11766589  .00000145  00000+0  35005-3 0  9998
2 48778  87.8982 252.0355 0002219  97.0461 263.0922 13.15549333249108
ONEWEB-0229             
1 48779U 21045N   26204.56927555  .00000059  00000+0  12203-3 0  9999
2 48779  87.8978 251.9431 0002013 100.6975 259.4382 13.15548306249197
ONEWEB-0228             
1 48780U 21045P   26204.37450325  .00000093  00000+0  21191-3 0  9990
2 48780  87.8989 251.9764 0002133  98.5419 261.5953 13.15549318249081
ONEWEB-0232             
1 48781U 21045Q   26204.57720437  .00000176  00000+0  43395-3 0  9999
2 48781  87.8985 251.9364 0002129  95.5824 264.5549 13.15547649249434
ONEWEB-0231             
1 48782U 21045R   26204.40290099  .00000030  00000+0  46256-4 0  9997
2 48782  87.8978 251.9820 0002274 100.5588 259.5799 13.15547873249103
ONEWEB-0234             
1 48783U 21045S   26204.36473781  .00000120  00000+0  28486-3 0  9998
2 48783  87.8992 251.9726 0002548  79.5485 280.5933 13.15547633249232
ONEWEB-0238             
1 48784U 21045T   26204.13681776  .00000099  00000+0  22939-3 0  9991
2 48784  87.8993 252.0142 0002254  85.9844 274.1544 13.15548974249104
ONEWEB-0240             
1 48785U 21045U   26204.15807443 -.00000133  00000+0 -38868-3 0  9994
2 48785  87.8985 252.0190 0002394  98.2383 261.9019 13.15549730249134
ONEWEB-0246             
1 48786U 21045V   26204.38071503 -.00000028  00000+0 -10804-3 0  9993
2 48786  87.8988 251.9788 0002026  99.2133 260.9227 13.15548350249031
ONEWEB-0210             
1 48787U 21045W   26204.43142150  .00000089  00000+0  20195-3 0  9996
2 48787  87.8986 251.9659 0002103 121.0264 239.1073 13.15548022249080
ONEWEB-0214             
1 48788U 21045X   26204.36407547  .00000095  00000+0  21707-3 0  9990
2 48788  87.8988 251.9763 0001762 103.7226 256.4100 13.15546668249047
ONEWEB-0221             
1 48789U 21045Y   26204.21909642  .00000041  00000+0  73646-4 0  9999
2 48789  87.8986 252.0131 0002137 100.0908 260.0463 13.15547810249112
ONEWEB-0213             
1 48790U 21045Z   26204.20800057  .00000070  00000+0  15282-3 0  9993
2 48790  87.8988 252.0189 0002155 104.9982 255.1387 13.15548711249171
ONEWEB-0212             
1 48791U 21045AA  26204.56530890  .00000050  00000+0  99937-4 0  9996
2 48791  87.8981 251.9416 0002052  95.9312 264.2052 13.15547260249211
ONEWEB-0227             
1 48792U 21045AB  26204.56450082 -.00000330  00000+0 -90932-3 0  9999
2 48792  87.8988 251.9421 0002100  97.9418 262.1951 13.15557958249162
ONEWEB-0226             
1 48793U 21045AC  26204.55818277 -.00000001  00000+0 -35496-4 0  9993
2 48793  87.8980 251.9478 0002077 103.9108 256.2253 13.15547728249134
ONEWEB-0224             
1 48794U 21045AD  26204.36962421  .00000021  00000+0  21539-4 0  9997
2 48794  87.8980 252.0175 0002900  90.1222 270.0241 13.15548845249031
ONEWEB-0233             
1 48795U 21045AE  26204.14605097 -.00000191  00000+0 -54088-3 0  9991
2 48795  87.8976 252.0690 0002280 100.5974 259.5414 13.15548405249025
ONEWEB-0190             
1 48796U 21045AF  26204.20958315  .00000070  00000+0  15294-3 0  9993
2 48796  87.8984 252.0206 0002435 111.0546 249.0845 13.15549007249102
