OBJECT_NAME,OBJECT_ID,EPOCH,MEAN_MOTION,ECCENTRICITY,INCLINATION,RA_OF_ASC_NODE,ARG_OF_PERICENTER,MEAN_ANOMALY,EPHEMERIS_TYPE,CLASSIFICATION_TYPE,NORAD_CAT_ID,ELEMENT_SET_NO,REV_AT_EPOCH,BSTAR,MEAN_MOTION_DOT,MEAN_MOTION_DDOT
ONEWEB-0211,2021-045A,2026-07-23T14:30:25.648992,13.16197718,.00027545,87.8982,251.8180,99.0113,261.1329,0,U,48767,999,24923,-.24635027E-4,.3E-7,0
ONEWEB-0223,2021-045B,2026-07-23T13:10:05.455200,13.15548545,.00024032,87.8982,251.9471,102.4621,257.6778,0,U,48768,999,24918,-.37712414E-3,-.129E-5,0
ONEWEB-0230,2021-045C,2026-07-23T03:21:24.596928,13.15548770,.00018705,87.8979,252.0390,95.4574,264.6769,0,U,48769,999,24939,.11355796E-3,.56E-6,0
ONEWEB-0237,2021-045D,2026-07-23T14:02:33.349344,13.15555993,.00024506,87.8963,251.9511,87.3115,272.8296,0,U,48770,999,24917,.26235909E-2,.1001E-4,0
ONEWEB-0235,2021-045E,2026-07-23T04:18:25.092576,13.15547792,.00023678,87.8983,252.0221,105.2113,254.9279,0,U,48771,999,24911,-.34077226E-3,-.115E-5,0
ONEWEB-0242,2021-045F,2026-07-23T13:16:56.053920,13.15548827,.0002024,87.8986,251.9451,102.4575,257.6782,0,U,48772,999,24920,-.16418563E-3,-.49E-6,0
ONEWEB-0241,2021-045G,2026-07-23T09:19:40.790784,13.15551087,.00023875,87.8975,251.9919,101.0111,259.1288,0,U,48773,999,24909,-.42548419E-3,-.147E-5,0
ONEWEB-0243,2021-045H,2026-07-23T02:47:09.126240,13.15517808,.00022852,87.8980,252.0598,114.7431,245.3937,0,U,48774,999,24908,.16141263E-1,.6091E-4,0
ONEWEB-0222,2021-045J,2026-07-23T09:41:18.895488,13.15547800,.00022715,87.8981,251.9720,99.0828,261.0559,0,U,48775,999,24916,.23755318E-4,.22E-6,0
ONEWEB-0244,2021-045K,2026-07-23T10:18:58.073184,13.15548180,.00020862,87.8988,251.9635,100.4152,259.7214,0,U,48776,999,24973,.21052041E-3,.92E-6,0
ONEWEB-0247,2021-045L,2026-07-23T13:53:25.649376,13.15546918,.00023544,87.8970,251.9609,117.0563,243.0808,0,U,48777,999,24919,.37070165E-3,.152E-5,0
ONEWEB-0245,2021-045M,2026-07-23T02:49:26.332896,13.15549333,.00022197,87.8982,252.0355,97.0461,263.0922,0,U,48778,999,24910,.35004622E-3,.145E-5,0
ONEWEB-0229,2021-045N,2026-07-23T13:39:45.407520,13.15548306,.00020134,87.8978,251.9431,100.6975,259.4382,0,U,48779,999,24919,.12202607E-3,.59E-6,0
ONEWEB-0228,2021-045P,2026-07-23T08:59:17.080800,13.15549318,.0002133,87.8989,251.9764,98.5419,261.5953,0,U,48780,999,24908,.21190882E-3,.93E-6,0
ONEWEB-0232,2021-045Q,2026-07-23T13:51:10.457568,13.15547649,.00021291,87.8985,251.9364,95.5824,264.5549,0,U,48781,999,24943,.4339488E-3,.176E-5,0
ONEWEB-0231,2021-045R,2026-07-23T09:40:10.645536,13.15547873,.0002274,87.8978,251.9820,100.5588,259.5799,0,U,48782,999,24910,.46256104E-4,.3E-6,0
ONEWEB-0234,2021-045S,2026-07-23T08:45:13.346784,13.15547633,.00025489,87.8992,251.9726,79.5485,280.5933,0,U,48783,999,24923,.28485759E-3,.12E-5,0
ONEWEB-0238,2021-045T,2026-07-23T03:17:01.054464,13.15548974,.00022549,87.8993,252.0142,85.9844,274.1544,0,U,48784,999,24910,.22939168E-3,.99E-6,0
ONEWEB-0240,2021-045U,2026-07-23T03:47:37.630752,13.15549730,.00023943,87.8985,252.0190,98.2383,261.9019,0,U,48785,999,24913,-.38867505E-3,-.133E-5,0
ONEWEB-0246,2021-045V,2026-07-23T09:08:13.778592,13.15548350,.00020263,87.8988,251.9788,99.2133,260.9227,0,U,48786,999,24903,-.10804155E-3,-.28E-6,0
ONEWEB-0210,2021-045W,2026-07-23T10:21:14.817600,13.15548022,.00021036,87.8986,251.9659,121.0264,239.1073,0,U,48787,999,24908,.20194694E-3,.89E-6,0
ONEWEB-0214,2021-045X,2026-07-23T08:44:16.120608,13.15546668,.00017622,87.8988,251.9763,103.7226,256.4100,0,U,48788,999,24904,.21707083E-3,.95E-6,0
ONEWEB-0221,2021-045Y,2026-07-23T05:15:29.930688,13.15547810,.00021373,87.8986,252.0131,100.0908,260.0463,0,U,48789,999,24911,.736457E-4,.41E-6,0
ONEWEB-0213,2021-045Z,2026-07-23T04:59:31.249248,13.15548711,.00021552,87.8988,252.0189,104.9982,255.1387,0,U,48790,999,24917,.15282493E-3,.7E-6,0
ONEWEB-0212,2021-045AA,2026-07-23T13:34:02.688960,13.15547260,.00020528,87.8981,251.9416,95.9312,264.2052,0,U,48791,999,24921,.99937338E-4,.5E-6,0
ONEWEB-0227,2021-045AB,2026-07-23T13:32:52.870848,13.15557958,.00021001,87.8988,251.9421,97.9418,262.1951,0,U,48792,999,24916,-.90932381E-3,-.33E-5,0
ONEWEB-0226,2021-045AC,2026-07-23T13:23:46.991328,13.15547728,.00020779,87.8980,251.9478,103.9108,256.2253,0,U,48793,999,24913,-.35496362E-4,-.1E-7,0
ONEWEB-0224,2021-045AD,2026-07-23T08:52:15.531744,13.15548845,.00029005,87.8980,252.0175,90.1222,270.0241,0,U,48794,999,24903,.2153859E-4,.21E-6,0
ONEWEB-0233,2021-045AE,2026-07-23T03:30:18.803808,13.15548405,.00022808,87.8976,252.0690,100.5974,259.5414,0,U,48795,999,24902,-.54088394E-3,-.191E-5,0
ONEWEB-0190,2021-045AF,2026-07-23T05:01:47.984160,13.15549007,.00024357,87.8984,252.0206,111.0546,249.0845,0,U,48796,999,24910,.15293501E-3,.7E-6,0
